SL-16 R/B               
1 22566U 93016B   26056.97683871  .00000224  00000+0  13942-3 0  9997
2 22566  71.0047 239.7827 0011014 330.4746  29.5754 14.15301251700512
COSMOS 2242             
1 22626U 93024A   26057.06856768  .00001673  00000+0  14475-3 0  9992
2 22626  82.5166 277.8343 0016099 350.0033  10.0867 14.96494384778658
SL-16 R/B               
1 22803U 93059B   26057.25448947  .00000273  00000+0  15864-3 0  9992
2 22803  70.9906  35.2398 0018975 232.3190 127.6214 14.17229787677919
ARIANE 40 R/B           
1 22830U 93061H   26057.17651814  .00000177  00000+0  80765-4 0  9991
2 22830  98.4942 126.2901 0009824 322.9906  37.0599 14.32853896692456
COSMOS 2278             
1 23087U 94023A   26056.78684441  .00000398  00000+0  23260-3 0  9994
2 23087  71.0530 199.9980 0007403  37.1728 322.9906 14.14370564643127
SL-16 R/B               
1 23088U 94023B   26057.26283674  .00000056  00000+0  53561-4 0  9991
2 23088  70.9988  94.8866 0005325 296.5385  63.5191 14.15012959644475
SL-16 R/B               
1 23343U 94074B   26057.09261486  .00000436  00000+0  65095-4 0  9996
2 23343  97.7125  88.3793 0005152 256.0727 166.5979 14.79392027685532
SL-16 R/B               
1 23405U 94077B   26057.24889652 -.00000150  00000+0 -52356-4 0  9997
2 23405  70.9848  16.5560 0003666 225.8818 134.2004 14.15563819614615
ARIANE 40+ R/B          
1 23561U 95021B   26057.21181301  .00000281  00000+0  10356-3 0  9999
2 23561  98.4522 128.8486 0007119 167.3341 257.9561 14.39762933617599
SL-16 R/B               
1 23705U 95058B   26056.83131077 -.00000231  00000+0 -94043-4 0  9994
2 23705  71.0206 205.1494 0011146 146.8496 213.3327 14.15493675566172
SL-16 R/B               
1 24298U 96051B   26057.12637722  .00000088  00000+0  74481-4 0  9999
2 24298  70.7589 199.7123 0016108 164.8346 195.3260 14.12412255520014
ORBVIEW 2 (SEASTAR)     
1 24883U 97037A   26057.05641461  .00000273  00000+0  11125-3 0  9992
2 24883  98.8547 221.0613 0003215  95.4136 264.7415 14.35484342506808
