CCSDS_OMM_VERS = 2.0
CREATION_DATE  = 
ORIGINATOR     = 

OBJECT_NAME    = SL-16 R/B
OBJECT_ID      = 1993-016B
CENTER_NAME    = EARTH
REF_FRAME      = TEME
TIME_SYSTEM    = UTC
MEAN_ELEMENT_THEORY = SGP/SGP4

EPOCH          = 2026-02-25T23:26:38.864544
MEAN_MOTION    = 14.15301251
ECCENTRICITY   = .0011014
INCLINATION    = 71.0047
RA_OF_ASC_NODE = 239.7827
ARG_OF_PERICENTER = 330.4746
MEAN_ANOMALY   = 29.5754

EPHEMERIS_TYPE = 0
CLASSIFICATION_TYPE = U
NORAD_CAT_ID   = 22566
ELEMENT_SET_NO = 999
REV_AT_EPOCH   = 70051
BSTAR          = .13942E-3
MEAN_MOTION_DOT = .224E-5
MEAN_MOTION_DDOT = 0

CCSDS_OMM_VERS = 2.0
CREATION_DATE  = 
ORIGINATOR     = 

OBJECT_NAME    = COSMOS 2242
OBJECT_ID      = 1993-024A
CENTER_NAME    = EARTH
REF_FRAME      = TEME
TIME_SYSTEM    = UTC
MEAN_ELEMENT_THEORY = SGP/SGP4

EPOCH          = 2026-02-26T01:38:44.247552
MEAN_MOTION    = 14.96494384
ECCENTRICITY   = .00160993
INCLINATION    = 82.5166
RA_OF_ASC_NODE = 277.8343
ARG_OF_PERICENTER = 350.0033
MEAN_ANOMALY   = 10.0867

EPHEMERIS_TYPE = 0
CLASSIFICATION_TYPE = U
NORAD_CAT_ID   = 22626
ELEMENT_SET_NO = 999
REV_AT_EPOCH   = 77865
BSTAR          = .14475492E-3
MEAN_MOTION_DOT = .1673E-4
MEAN_MOTION_DDOT = 0

CCSDS_OMM_VERS = 2.0
CREATION_DATE  = 
ORIGINATOR     = 

OBJECT_NAME    = SL-16 R/B
OBJECT_ID      = 1993-059B
CENTER_NAME    = EARTH
REF_FRAME      = TEME
TIME_SYSTEM    = UTC
MEAN_ELEMENT_THEORY = SGP/SGP4

EPOCH          = 2026-02-26T06:06:27.890208
MEAN_MOTION    = 14.17229787
ECCENTRICITY   = .0018975
INCLINATION    = 70.9906
RA_OF_ASC_NODE = 35.2398
ARG_OF_PERICENTER = 232.3190
MEAN_ANOMALY   = 127.6214

EPHEMERIS_TYPE = 0
CLASSIFICATION_TYPE = U
NORAD_CAT_ID   = 22803
ELEMENT_SET_NO = 999
REV_AT_EPOCH   = 67791
BSTAR          = .15863651E-3
MEAN_MOTION_DOT = .273E-5
MEAN_MOTION_DDOT = 0

CCSDS_OMM_VERS = 2.0
CREATION_DATE  = 
ORIGINATOR     = 

OBJECT_NAME    = ARIANE 40 R/B
OBJECT_ID      = 1993-061H
CENTER_NAME    = EARTH
REF_FRAME      = TEME
TIME_SYSTEM    = UTC
MEAN_ELEMENT_THEORY = SGP/SGP4

EPOCH          = 2026-02-26T04:14:11.167296
MEAN_MOTION    = 14.32853896
ECCENTRICITY   = .00098245
INCLINATION    = 98.4942
RA_OF_ASC_NODE = 126.2901
ARG_OF_PERICENTER = 322.9906
MEAN_ANOMALY   = 37.0599

EPHEMERIS_TYPE = 0
CLASSIFICATION_TYPE = U
NORAD_CAT_ID   = 22830
ELEMENT_SET_NO = 999
REV_AT_EPOCH   = 69245
BSTAR          = .80764572E-4
MEAN_MOTION_DOT = .177E-5
MEAN_MOTION_DDOT = 0

CCSDS_OMM_VERS = 2.0
CREATION_DATE  = 
ORIGINATOR     = 

OBJECT_NAME    = COSMOS 2278
OBJECT_ID      = 1994-023A
CENTER_NAME    = EARTH
REF_FRAME      = TEME
TIME_SYSTEM    = UTC
MEAN_ELEMENT_THEORY = SGP/SGP4

EPOCH          = 2026-02-25T18:53:03.357024
MEAN_MOTION    = 14.14370564
ECCENTRICITY   = .0007403
INCLINATION    = 71.0530
RA_OF_ASC_NODE = 199.9980
ARG_OF_PERICENTER = 37.1728
MEAN_ANOMALY   = 322.9906

EPHEMERIS_TYPE = 0
CLASSIFICATION_TYPE = U
NORAD_CAT_ID   = 23087
ELEMENT_SET_NO = 999
REV_AT_EPOCH   = 64312
BSTAR          = .23260439E-3
MEAN_MOTION_DOT = .398E-5
MEAN_MOTION_DDOT = 0

CCSDS_OMM_VERS = 2.0
CREATION_DATE  = 
ORIGINATOR     = 

OBJECT_NAME    = SL-16 R/B
OBJECT_ID      = 1994-023B
CENTER_NAME    = EARTH
REF_FRAME      = TEME
TIME_SYSTEM    = UTC
MEAN_ELEMENT_THEORY = SGP/SGP4

EPOCH          = 2026-02-26T06:18:29.094336
MEAN_MOTION    = 14.15012959
ECCENTRICITY   = .00053253
INCLINATION    = 70.9988
RA_OF_ASC_NODE = 94.8866
ARG_OF_PERICENTER = 296.5385
MEAN_ANOMALY   = 63.5191

EPHEMERIS_TYPE = 0
CLASSIFICATION_TYPE = U
NORAD_CAT_ID   = 23088
ELEMENT_SET_NO = 999
REV_AT_EPOCH   = 64447
BSTAR          = .53561495E-4
MEAN_MOTION_DOT = .56E-6
MEAN_MOTION_DDOT = 0

CCSDS_OMM_VERS = 2.0
CREATION_DATE  = 
ORIGINATOR     = 

OBJECT_NAME    = SL-16 R/B
OBJECT_ID      = 1994-074B
CENTER_NAME    = EARTH
REF_FRAME      = TEME
TIME_SYSTEM    = UTC
MEAN_ELEMENT_THEORY = SGP/SGP4

EPOCH          = 2026-02-26T02:13:21.923904
MEAN_MOTION    = 14.79392027
ECCENTRICITY   = .00051529
INCLINATION    = 97.7125
RA_OF_ASC_NODE = 88.3793
ARG_OF_PERICENTER = 256.0727
MEAN_ANOMALY   = 166.5979

EPHEMERIS_TYPE = 0
CLASSIFICATION_TYPE = U
NORAD_CAT_ID   = 23343
ELEMENT_SET_NO = 999
REV_AT_EPOCH   = 68553
BSTAR          = .65094587E-4
MEAN_MOTION_DOT = .436E-5
MEAN_MOTION_DDOT = 0

CCSDS_OMM_VERS = 2.0
CREATION_DATE  = 
ORIGINATOR     = 

OBJECT_NAME    = SL-16 R/B
OBJECT_ID      = 1994-077B
CENTER_NAME    = EARTH
REF_FRAME      = TEME
TIME_SYSTEM    = UTC
MEAN_ELEMENT_THEORY = SGP/SGP4

EPOCH          = 2026-02-26T05:58:24.659328
MEAN_MOTION    = 14.15563819
ECCENTRICITY   = .00036669
INCLINATION    = 70.9848
RA_OF_ASC_NODE = 16.5560
ARG_OF_PERICENTER = 225.8818
MEAN_ANOMALY   = 134.2004

EPHEMERIS_TYPE = 0
CLASSIFICATION_TYPE = U
NORAD_CAT_ID   = 23405
ELEMENT_SET_NO = 999
REV_AT_EPOCH   = 61461
BSTAR          = -.52356094E-4
MEAN_MOTION_DOT = -.15E-5
MEAN_MOTION_DDOT = 0

CCSDS_OMM_VERS = 2.0
CREATION_DATE  = 
ORIGINATOR     = 

OBJECT_NAME    = ARIANE 40+ R/B
OBJECT_ID      = 1995-021B
CENTER_NAME    = EARTH
REF_FRAME      = TEME
TIME_SYSTEM    = UTC
MEAN_ELEMENT_THEORY = SGP/SGP4

EPOCH          = 2026-02-26T05:05:00.644064
MEAN_MOTION    = 14.39762933
ECCENTRICITY   = .00071191
INCLINATION    = 98.4522
RA_OF_ASC_NODE = 128.8486
ARG_OF_PERICENTER = 167.3341
MEAN_ANOMALY   = 257.9561

EPHEMERIS_TYPE = 0
CLASSIFICATION_TYPE = U
NORAD_CAT_ID   = 23561
ELEMENT_SET_NO = 999
REV_AT_EPOCH   = 61759
BSTAR          = .10356124E-3
MEAN_MOTION_DOT = .281E-5
MEAN_MOTION_DDOT = 0

CCSDS_OMM_VERS = 2.0
CREATION_DATE  = 
ORIGINATOR     = 

OBJECT_NAME    = SL-16 R/B
OBJECT_ID      = 1995-058B
CENTER_NAME    = EARTH
REF_FRAME      = TEME
TIME_SYSTEM    = UTC
MEAN_ELEMENT_THEORY = SGP/SGP4

EPOCH          = 2026-02-25T19:57:05.250528
MEAN_MOTION    = 14.15493675
ECCENTRICITY   = .00111464
INCLINATION    = 71.0206
RA_OF_ASC_NODE = 205.1494
ARG_OF_PERICENTER = 146.8496
MEAN_ANOMALY   = 213.3327

EPHEMERIS_TYPE = 0
CLASSIFICATION_TYPE = U
NORAD_CAT_ID   = 23705
ELEMENT_SET_NO = 999
REV_AT_EPOCH   = 56617
BSTAR          = -.9404329E-4
MEAN_MOTION_DOT = -.231E-5
MEAN_MOTION_DDOT = 0

CCSDS_OMM_VERS = 2.0
CREATION_DATE  = 
ORIGINATOR     = 

OBJECT_NAME    = SL-16 R/B
OBJECT_ID      = 1996-051B
CENTER_NAME    = EARTH
REF_FRAME      = TEME
TIME_SYSTEM    = UTC
MEAN_ELEMENT_THEORY = SGP/SGP4

EPOCH          = 2026-02-26T03:01:58.991808
MEAN_MOTION    = 14.12412255
ECCENTRICITY   = .00161084
INCLINATION    = 70.7589
RA_OF_ASC_NODE = 199.7123
ARG_OF_PERICENTER = 164.8346
MEAN_ANOMALY   = 195.3260

EPHEMERIS_TYPE = 0
CLASSIFICATION_TYPE = U
NORAD_CAT_ID   = 24298
ELEMENT_SET_NO = 999
REV_AT_EPOCH   = 52001
BSTAR          = .74480506E-4
MEAN_MOTION_DOT = .88E-6
MEAN_MOTION_DDOT = 0

CCSDS_OMM_VERS = 2.0
CREATION_DATE  = 
ORIGINATOR     = 

OBJECT_NAME    = ORBVIEW 2 (SEASTAR)
OBJECT_ID      = 1997-037A
CENTER_NAME    = EARTH
REF_FRAME      = TEME
TIME_SYSTEM    = UTC
MEAN_ELEMENT_THEORY = SGP/SGP4

EPOCH          = 2026-02-26T01:21:14.222304
MEAN_MOTION    = 14.35484342
ECCENTRICITY   = .00032155
INCLINATION    = 98.8547
RA_OF_ASC_NODE = 221.0613
ARG_OF_PERICENTER = 95.4136
MEAN_ANOMALY   = 264.7415

EPHEMERIS_TYPE = 0
CLASSIFICATION_TYPE = U
NORAD_CAT_ID   = 24883
ELEMENT_SET_NO = 999
REV_AT_EPOCH   = 50680
BSTAR          = .11124529E-3
MEAN_MOTION_DOT = .273E-5
MEAN_MOTION_DDOT = 0

